[{"OBJECT_NAME":"ONEWEB-0637","OBJECT_ID":"2023-043AJ","EPOCH":"2026-01-08T06:10:36.743808","MEAN_MOTION":13.15546976,"ECCENTRICITY":0.00018409,"INCLINATION":87.9012,"RA_OF_ASC_NODE":291.1389,"ARG_OF_PERICENTER":81.9936,"MEAN_ANOMALY":278.1404,"EPHEMERIS_TYPE":0,"CLASSIFICATION_TYPE":"U","NORAD_CAT_ID":56078,"ELEMENT_SET_NO":999,"REV_AT_EPOCH":13540,"BSTAR":-0.00083289908,"MEAN_MOTION_DOT":-3.01e-6,"MEAN_MOTION_DDOT":0},{"OBJECT_NAME":"ONEWEB-0647","OBJECT_ID":"2023-043AK","EPOCH":"2026-01-08T06:03:47.362464","MEAN_MOTION":13.15548579,"ECCENTRICITY":0.00017622,"INCLINATION":87.901,"RA_OF_ASC_NODE":291.153,"ARG_OF_PERICENTER":70.1399,"MEAN_ANOMALY":289.9921,"EPHEMERIS_TYPE":0,"CLASSIFICATION_TYPE":"U","NORAD_CAT_ID":56079,"ELEMENT_SET_NO":999,"REV_AT_EPOCH":13539,"BSTAR":7.584808e-5,"MEAN_MOTION_DOT":4.1e-7,"MEAN_MOTION_DDOT":0},{"OBJECT_NAME":"ONEWEB-0651","OBJECT_ID":"2023-043AL","EPOCH":"2026-01-08T05:56:57.027264","MEAN_MOTION":13.15548447,"ECCENTRICITY":0.00019222,"INCLINATION":87.9012,"RA_OF_ASC_NODE":291.1478,"ARG_OF_PERICENTER":77.6043,"MEAN_ANOMALY":282.5302,"EPHEMERIS_TYPE":0,"CLASSIFICATION_TYPE":"U","NORAD_CAT_ID":56080,"ELEMENT_SET_NO":999,"REV_AT_EPOCH":13659,"BSTAR":0.00026361212,"MEAN_MOTION_DOT":1.12e-6,"MEAN_MOTION_DDOT":0},{"OBJECT_NAME":"ONEWEB-0718","OBJECT_ID":"2023-043AM","EPOCH":"2026-01-08T07:39:35.822304","MEAN_MOTION":13.15546604,"ECCENTRICITY":0.00012485,"INCLINATION":87.9013,"RA_OF_ASC_NODE":291.1139,"ARG_OF_PERICENTER":89.8645,"MEAN_ANOMALY":270.2628,"EPHEMERIS_TYPE":0,"CLASSIFICATION_TYPE":"U","NORAD_CAT_ID":56081,"ELEMENT_SET_NO":999,"REV_AT_EPOCH":13541,"BSTAR":8.3789563e-5,"MEAN_MOTION_DOT":4.4e-7,"MEAN_MOTION_DDOT":0},{"OBJECT_NAME":"ONEWEB-0561","OBJECT_ID":"2023-068A","EPOCH":"2026-01-08T06:36:17.098560","MEAN_MOTION":13.20771831,"ECCENTRICITY":0.00021321,"INCLINATION":87.9221,"RA_OF_ASC_NODE":306.3466,"ARG_OF_PERICENTER":69.924,"MEAN_ANOMALY":290.2123,"EPHEMERIS_TYPE":0,"CLASSIFICATION_TYPE":"U","NORAD_CAT_ID":56710,"ELEMENT_SET_NO":999,"REV_AT_EPOCH":12839,"BSTAR":0.0001225848,"MEAN_MOTION_DOT":6.3e-7,"MEAN_MOTION_DDOT":0},{"OBJECT_NAME":"ONEWEB-0668","OBJECT_ID":"2023-068B","EPOCH":"2026-01-08T05:27:21.317184","MEAN_MOTION":13.16594057,"ECCENTRICITY":0.00014341,"INCLINATION":87.905,"RA_OF_ASC_NODE":260.6085,"ARG_OF_PERICENTER":97.8926,"MEAN_ANOMALY":262.2368,"EPHEMERIS_TYPE":0,"CLASSIFICATION_TYPE":"U","NORAD_CAT_ID":56711,"ELEMENT_SET_NO":999,"REV_AT_EPOCH":13073,"BSTAR":0.00040299658,"MEAN_MOTION_DOT":1.67e-6,"MEAN_MOTION_DDOT":0},{"OBJECT_NAME":"ONEWEB-0676","OBJECT_ID":"2023-068C","EPOCH":"2026-01-08T05:38:44.055168","MEAN_MOTION":13.16592493,"ECCENTRICITY":0.00018449,"INCLINATION":87.9039,"RA_OF_ASC_NODE":260.6261,"ARG_OF_PERICENTER":76.0618,"MEAN_ANOMALY":284.0718,"EPHEMERIS_TYPE":0,"CLASSIFICATION_TYPE":"U","NORAD_CAT_ID":56712,"ELEMENT_SET_NO":999,"REV_AT_EPOCH":13065,"BSTAR":5.9446134e-5,"MEAN_MOTION_DOT":3.6e-7,"MEAN_MOTION_DDOT":0},{"OBJECT_NAME":"ONEWEB-0677","OBJECT_ID":"2023-068D","EPOCH":"2026-01-08T06:20:22.025184","MEAN_MOTION":13.20771063,"ECCENTRICITY":0.00018839,"INCLINATION":87.9233,"RA_OF_ASC_NODE":306.3351,"ARG_OF_PERICENTER":80.7323,"MEAN_ANOMALY":279.4023,"EPHEMERIS_TYPE":0,"CLASSIFICATION_TYPE":"U","NORAD_CAT_ID":56713,"ELEMENT_SET_NO":999,"REV_AT_EPOCH":12869,"BSTAR":6.864765e-5,"MEAN_MOTION_DOT":4.1e-7,"MEAN_MOTION_DDOT":0},{"OBJECT_NAME":"ONEWEB-0678","OBJECT_ID":"2023-068E","EPOCH":"2026-01-08T06:53:59.138592","MEAN_MOTION":13.15548774,"ECCENTRICITY":0.00016873,"INCLINATION":87.9016,"RA_OF_ASC_NODE":291.0979,"ARG_OF_PERICENTER":64.0317,"MEAN_ANOMALY":296.0987,"EPHEMERIS_TYPE":0,"CLASSIFICATION_TYPE":"U","NORAD_CAT_ID":56714,"ELEMENT_SET_NO":999,"REV_AT_EPOCH":12826,"BSTAR":0.00022325967,"MEAN_MOTION_DOT":9.7e-7,"MEAN_MOTION_DDOT":0},{"OBJECT_NAME":"ONEWEB-0679","OBJECT_ID":"2023-068F","EPOCH":"2026-01-08T04:39:28.810080","MEAN_MOTION":13.1659297,"ECCENTRICITY":0.00019221,"INCLINATION":87.9042,"RA_OF_ASC_NODE":260.6169,"ARG_OF_PERICENTER":91.0967,"MEAN_ANOMALY":269.0384,"EPHEMERIS_TYPE":0,"CLASSIFICATION_TYPE":"U","NORAD_CAT_ID":56715,"ELEMENT_SET_NO":999,"REV_AT_EPOCH":13067,"BSTAR":-0.00020120096,"MEAN_MOTION_DOT":-6.4e-7,"MEAN_MOTION_DDOT":0},{"OBJECT_NAME":"ONEWEB-0680","OBJECT_ID":"2023-068G","EPOCH":"2026-01-08T07:14:15.006048","MEAN_MOTION":13.2182443,"ECCENTRICITY":0.00016918,"INCLINATION":87.923,"RA_OF_ASC_NODE":275.8542,"ARG_OF_PERICENTER":96.7902,"MEAN_ANOMALY":263.3425,"EPHEMERIS_TYPE":0,"CLASSIFICATION_TYPE":"U","NORAD_CAT_ID":56716,"ELEMENT_SET_NO":999,"REV_AT_EPOCH":12997,"BSTAR":0.0003307221,"MEAN_MOTION_DOT":1.5e-6,"MEAN_MOTION_DDOT":0},{"OBJECT_NAME":"ONEWEB-0681","OBJECT_ID":"2023-068H","EPOCH":"2026-01-08T06:44:37.300992","MEAN_MOTION":13.21827063,"ECCENTRICITY":0.00027192,"INCLINATION":87.9221,"RA_OF_ASC_NODE":275.8715,"ARG_OF_PERICENTER":72.4071,"MEAN_ANOMALY":287.736,"EPHEMERIS_TYPE":0,"CLASSIFICATION_TYPE":"U","NORAD_CAT_ID":56717,"ELEMENT_SET_NO":999,"REV_AT_EPOCH":12996,"BSTAR":-0.00038933104,"MEAN_MOTION_DOT":-1.48e-6,"MEAN_MOTION_DDOT":0},{"OBJECT_NAME":"ONEWEB-0682","OBJECT_ID":"2023-068J","EPOCH":"2026-01-08T07:31:37.930944","MEAN_MOTION":13.15548499,"ECCENTRICITY":0.00017669,"INCLINATION":87.9009,"RA_OF_ASC_NODE":291.1047,"ARG_OF_PERICENTER":92.0059,"MEAN_ANOMALY":268.1274,"EPHEMERIS_TYPE":0,"CLASSIFICATION_TYPE":"U","NORAD_CAT_ID":56718,"ELEMENT_SET_NO":999,"REV_AT_EPOCH":12843,"BSTAR":0.00028721688,"MEAN_MOTION_DOT":1.21e-6,"MEAN_MOTION_DDOT":0},{"OBJECT_NAME":"ONEWEB-0683","OBJECT_ID":"2023-068K","EPOCH":"2026-01-08T06:12:54.860256","MEAN_MOTION":13.15548264,"ECCENTRICITY":0.00016197,"INCLINATION":87.902,"RA_OF_ASC_NODE":291.1024,"ARG_OF_PERICENTER":83.6003,"MEAN_ANOMALY":276.5312,"EPHEMERIS_TYPE":0,"CLASSIFICATION_TYPE":"U","NORAD_CAT_ID":56719,"ELEMENT_SET_NO":999,"REV_AT_EPOCH":12839,"BSTAR":-0.00011761267,"MEAN_MOTION_DOT":-3.1e-7,"MEAN_MOTION_DDOT":0},{"OBJECT_NAME":"ONEWEB-0684","OBJECT_ID":"2023-068L","EPOCH":"2026-01-08T06:24:17.840160","MEAN_MOTION":13.15549519,"ECCENTRICITY":0.00013,"INCLINATION":87.9017,"RA_OF_ASC_NODE":291.0949,"ARG_OF_PERICENTER":20.7109,"MEAN_ANOMALY":339.4073,"EPHEMERIS_TYPE":0,"CLASSIFICATION_TYPE":"U","NORAD_CAT_ID":56720,"ELEMENT_SET_NO":999,"REV_AT_EPOCH":12822,"BSTAR":-0.00014703005,"MEAN_MOTION_DOT":-4.3e-7,"MEAN_MOTION_DDOT":0},{"OBJECT_NAME":"ONEWEB-0686","OBJECT_ID":"2023-068M","EPOCH":"2026-01-08T08:00:01.000224","MEAN_MOTION":13.1719925,"ECCENTRICITY":0.00013,"INCLINATION":87.9016,"RA_OF_ASC_NODE":260.6405,"ARG_OF_PERICENTER":83.9699,"MEAN_ANOMALY":3.9191,"EPHEMERIS_TYPE":0,"CLASSIFICATION_TYPE":"U","NORAD_CAT_ID":56721,"ELEMENT_SET_NO":999,"REV_AT_EPOCH":526,"BSTAR":-0.11724931,"MEAN_MOTION_DOT":-0.00044989,"MEAN_MOTION_DDOT":0},{"OBJECT_NAME":"ONEWEB-0694","OBJECT_ID":"2023-068N","EPOCH":"2026-01-08T05:41:02.194080","MEAN_MOTION":13.16595202,"ECCENTRICITY":0.00014832,"INCLINATION":87.9048,"RA_OF_ASC_NODE":260.5896,"ARG_OF_PERICENTER":94.6459,"MEAN_ANOMALY":265.4842,"EPHEMERIS_TYPE":0,"CLASSIFICATION_TYPE":"U","NORAD_CAT_ID":56722,"ELEMENT_SET_NO":999,"REV_AT_EPOCH":13072,"BSTAR":5.9598275e-5,"MEAN_MOTION_DOT":3.6e-7,"MEAN_MOTION_DDOT":0}]
