ONEWEB-0637             
1 56078U 23043AJ  26008.25736972 -.00000301  00000+0 -83290-3 0  9995
2 56078  87.9012 291.1389 0001840  81.9936 278.1404 13.15546976135403
ONEWEB-0647             
1 56079U 23043AK  26008.25263151  .00000041  00000+0  75848-4 0  9990
2 56079  87.9010 291.1530 0001762  70.1399 289.9921 13.15548579135399
ONEWEB-0651             
1 56080U 23043AL  26008.24788226  .00000112  00000+0  26361-3 0  9990
2 56080  87.9012 291.1478 0001922  77.6043 282.5302 13.15548447136599
ONEWEB-0718             
1 56081U 23043AM  26008.31916461  .00000044  00000+0  83790-4 0  9997
2 56081  87.9013 291.1139 0001248  89.8645 270.2628 13.15546604135417
ONEWEB-0561             
1 56710U 23068A   26008.27519790  .00000063  00000+0  12258-3 0  9993
2 56710  87.9221 306.3466 0002132  69.9240 290.2123 13.20771831128391
ONEWEB-0668             
1 56711U 23068B   26008.22733006  .00000167  00000+0  40300-3 0  9991
2 56711  87.9050 260.6085 0001434  97.8926 262.2368 13.16594057130735
ONEWEB-0676             
1 56712U 23068C   26008.23523212  .00000036  00000+0  59446-4 0  9996
2 56712  87.9039 260.6261 0001844  76.0618 284.0718 13.16592493130655
ONEWEB-0677             
1 56713U 23068D   26008.26414381  .00000041  00000+0  68648-4 0  9996
2 56713  87.9233 306.3351 0001883  80.7323 279.4023 13.20771063128693
ONEWEB-0678             
1 56714U 23068E   26008.28749003  .00000097  00000+0  22326-3 0  9994
2 56714  87.9016 291.0979 0001687  64.0317 296.0987 13.15548774128261
ONEWEB-0679             
1 56715U 23068F   26008.19408345 -.00000064  00000+0 -20120-3 0  9992
2 56715  87.9042 260.6169 0001922  91.0967 269.0384 13.16592970130674
ONEWEB-0680             
1 56716U 23068G   26008.30156257  .00000150  00000+0  33072-3 0  9992
2 56716  87.9230 275.8542 0001691  96.7902 263.3425 13.21824430129970
ONEWEB-0681             
1 56717U 23068H   26008.28098728 -.00000148  00000+0 -38933-3 0  9998
2 56717  87.9221 275.8715 0002719  72.4071 287.7360 13.21827063129965
ONEWEB-0682             
1 56718U 23068J   26008.31363346  .00000121  00000+0  28722-3 0  9998
2 56718  87.9009 291.1047 0001766  92.0059 268.1274 13.15548499128438
ONEWEB-0683             
1 56719U 23068K   26008.25896829 -.00000031  00000+0 -11761-3 0  9996
2 56719  87.9020 291.1024 0001619  83.6003 276.5312 13.15548264128390
ONEWEB-0684             
1 56720U 23068L   26008.26687315 -.00000043  00000+0 -14703-3 0  9999
2 56720  87.9017 291.0949 0001300  20.7109 339.4073 13.15549519128228
ONEWEB-0686             
1 56721U 23068M   26008.33334491 -.00044989  00000+0 -11725+0 0  9996
2 56721  87.9016 260.6405 0001300  83.9699   3.9191 13.17199250  5269
ONEWEB-0694             
1 56722U 23068N   26008.23683095  .00000036  00000+0  59598-4 0  9991
2 56722  87.9048 260.5896 0001483  94.6459 265.4842 13.16595202130727
